[{"OBJECT_NAME":"STARLINK-32547","OBJECT_ID":"2024-207H","EPOCH":"2026-03-09T22:20:27.777120","MEAN_MOTION":15.27587154,"ECCENTRICITY":0.00027134,"INCLINATION":43.0018,"RA_OF_ASC_NODE":279.9755,"ARG_OF_PERICENTER":260.3906,"MEAN_ANOMALY":99.6639,"EPHEMERIS_TYPE":0,"CLASSIFICATION_TYPE":"U","NORAD_CAT_ID":61919,"ELEMENT_SET_NO":999,"REV_AT_EPOCH":7475,"BSTAR":0.00090826903,"MEAN_MOTION_DOT":0.00024822,"MEAN_MOTION_DDOT":0},{"OBJECT_NAME":"HAWK-11B","OBJECT_ID":"2024-247C","EPOCH":"2026-03-09T10:44:06.809856","MEAN_MOTION":15.2884707,"ECCENTRICITY":0.00046902,"INCLINATION":45.0161,"RA_OF_ASC_NODE":115.761,"ARG_OF_PERICENTER":333.0326,"MEAN_ANOMALY":27.0314,"EPHEMERIS_TYPE":0,"CLASSIFICATION_TYPE":"U","NORAD_CAT_ID":62379,"ELEMENT_SET_NO":999,"REV_AT_EPOCH":6773,"BSTAR":0.00032841927,"MEAN_MOTION_DOT":9.093e-5,"MEAN_MOTION_DDOT":0}]
